COSMOS 2499 (RS-47)     
1 39765U 14028E   25261.25594711  .00000048  00000+0  14585-3 0  9992
2 39765  82.4449  75.9327 0230634 280.1013  77.4145 12.82895418530159
HODOYOSHI-4             
1 40011U 14033B   25261.29853769  .00001452  00000+0  16688-3 0  9995
2 40011  97.5493  94.3907 0025245 124.5714 235.7890 14.87030850608384
UNISAT-6                
1 40012U 14033C   25260.97990129  .00003581  00000+0  41015-3 0  9999
2 40012  97.7547  54.4821 0046189 244.2499 115.3946 14.85804116605709
DEIMOS-2                
1 40013U 14033D   25261.31177242  .00001467  00000+0  14859-3 0  9999
2 40013  97.6171 139.9194 0002098 103.3177 256.8277 14.92400536597156
BUGSAT-1 (TITA)         
1 40014U 14033E   25261.31531846  .00004179  00000+0  24619-3 0  9992
2 40014  98.0660 333.4522 0030847  29.7491 330.5484 15.11818968614709
SAUDISAT 4              
1 40016U 14033G   25261.19793001  .00000857  00000+0  12137-3 0  9994
2 40016  97.7214  52.4832 0044173 237.7253 121.9676 14.78898075605869
APRIZESAT 9             
1 40018U 14033J   25261.19213486  .00000585  00000+0  94505-4 0  9998
2 40018  97.8688  36.7769 0066700 356.0503   4.0170 14.73630238603491
BRITE-CA1 (TORONTO)     
1 40020U 14033L   25260.85610632  .00001015  00000+0  16216-3 0  9998
2 40020  97.9392  30.5530 0080949  69.1306 291.8545 14.71854859602147
DUCHIFAT-1              
1 40021U 14033M   25261.01327858  .00024704  00000+0  77727-3 0  9997
2 40021  98.0927 284.3756 0006202 341.3826  18.7187 15.32933989613684
NANOSATC-BR1            
1 40024U 14033Q   25260.96864060  .00013450  00000+0  61321-3 0  9993
2 40024  98.0948 266.0587 0006402  66.1980 293.9924 15.20771393612450
QB50P1                  
1 40025U 14033R   25261.18870999  .00009007  00000+0  52725-3 0  9998
2 40025  98.0919 249.5282 0012172  77.5653 282.6937 15.12024290611839
DTUSAT-2                
1 40030U 14033W   25260.89376563  .00007823  00000+0  49058-3 0  9998
2 40030  98.0653 237.7080 0010983  83.1282 277.1195 15.09582016611526
FLOCK 1C-4              
1 40031U 14033X   25261.28765793  .00098149  00000+0  15602-2 0  9998
2 40031  98.0835 281.6288 0002732  72.4275 287.7274 15.52967759613114
QB50P2                  
1 40032U 14033Y   25260.90876554  .00006865  00000+0  43016-3 0  9990
2 40032  98.0534 237.2389 0009419  34.6847 325.4993 15.09674036611508
PERSEUS-M1              
1 40039U 14033AF  25261.22806426  .00002183  00000+0  20947-3 0  9991
2 40039  97.9325 196.6744 0013414 116.0457 244.2145 14.94103798610002
POLYITAN-1              
1 40042U 14033AJ  25260.97022022  .00014441  00000+0  64743-3 0  9990
2 40042  98.1093 258.6791 0010133  30.8974 329.2854 15.21301794612037
TIGRISAT                
1 40043U 14033AK  25260.92237012  .00002415  00000+0  29461-3 0  9999
2 40043  97.7483  53.0765 0049846 246.8328 112.7630 14.83385118605239
AISAT                   
1 40054U 14034B   25261.12396789  .00008074  00000+0  63004-3 0  9990
2 40054  98.2529 149.9107 0012712  55.3419 304.9000 15.01382995606271
CANX-4                  
1 40055U 14034C   25261.06175279  .00000991  00000+0  13707-3 0  9998
2 40055  98.3489 120.8808 0013281 159.8308 200.3430 14.80432799604259
CANX-5                  
1 40056U 14034D   25261.06319618  .00000992  00000+0  13704-3 0  9994
2 40056  98.3492 120.9100 0013273 160.0260 200.1473 14.80448169595063
VELOX-I                 
1 40057U 14034E   25261.33966137  .00004374  00000+0  41553-3 0  9990
2 40057  98.2767 146.2731 0009495  86.8183 273.4122 14.94026661605957
GONETS-M 10             
1 40063U 14036C   25261.32409544  .00000027  00000+0  12200-3 0  9990
2 40063  82.5073 116.5492 0022272  16.7853 343.3959 12.42936057508472
METEOR-M 2              
1 40069U 14037A   25261.28870626  .00000137  00000+0  82003-4 0  9996
2 40069  98.4795 242.1900 0006917 103.5161 256.6788 14.21332753580692
DX1                     
1 40071U 14037C   25261.27032265  .00001935  00000+0  21459-3 0  9991
2 40071  98.3481 202.3670 0008981  78.9666 281.2558 14.88528309605634
UKUBE-1                 
1 40074U 14037F   25260.88232886  .00009315  00000+0  62531-3 0  9997
2 40074  98.4029 232.1185 0002751  54.3470 305.8011 15.07069413607444
GAOFEN-2                
1 40118U 14049A   25261.31126432  .00001052  00000+0  14511-3 0  9992
2 40118  98.0512 320.2860 0007540  57.1645 303.0291 14.80298966599000
BRITE-PL2 (HEWELIUSZ)   
1 40119U 14049B   25261.23471727  .00002225  00000+0  21952-3 0  9994
2 40119  97.8952   6.7375 0013235 293.0992  66.8832 14.92984146600842
CBERS 4                 
1 40336U 14079A   25261.34085828  .00000105  00000+0  51209-4 0  9997
2 40336  98.3441 322.2193 0001898  73.1423 286.9971 14.35508812564953
SMAP                    
1 40376U 15003A   25261.21599897  .00000509  00000+0  10749-3 0  9992
2 40376  98.1314 267.1487 0001426  85.9514 274.1851 14.63422041567843
GONETS-M 11             
1 40552U 15020A   25261.32720073  .00000012  00000+0  14475-4 0  9991
2 40552  82.4888 200.3530 0014678 235.3299 124.6398 12.42863319474960
GONETS-M 12             
1 40553U 15020B   25261.30336470  .00000012  00000+0  17721-4 0  9991
2 40553  82.4920 201.4188 0013675 217.9675 142.0442 12.42859858474955
GONETS-M 13             
1 40554U 15020C   25261.27294662  .00000013  00000+0  20285-4 0  9994
2 40554  82.4883 200.1341 0012438 201.5684 158.4873 12.42857610474926
DMC3-FM1                
1 40715U 15032A   25261.34890324  .00000640  00000+0  80654-4 0  9993
2 40715  97.6817 131.6124 0004488 216.5101 143.5809 14.85214626549552
DMC3-FM2                
1 40716U 15032B   25261.30367932  .00000651  00000+0  82018-4 0  9992
2 40716  97.6876 132.9538 0005002 225.1100 134.9710 14.85206214549547
DMC3-FM3                
1 40717U 15032C   25261.32565799  .00000599  00000+0  75841-4 0  9993
2 40717  97.6924 134.5506 0004218 223.5354 136.5528 14.85216199549555
CARBONITE 1 (CBNT-1)    
1 40718U 15032D   25261.33216919  .00001950  00000+0  25068-3 0  9999
2 40718  97.6446  86.1582 0016125 105.1032 255.1967 14.82150495549052
DEORBITSAIL             
1 40719U 15032E   25260.56477190  .00007484  00000+0  63483-3 0  9995
2 40719  97.6320 117.9016 0012930  58.1583 302.0897 14.98154835550344
2015-049G               
1 40905U 15049G   25261.35185999  .00018772  00000+0  36078-3 0  9993
2 40905  97.4964 287.4494 0009530 130.4466 229.7617 15.47942081554153
LILACSAT-2              
1 40908U 15049K   25261.32573846  .00011944  00000+0  28902-3 0  9996
2 40908  97.5029 284.2433 0009958 147.6891 212.4967 15.41230123553734
COSMOS 2507             
1 40920U 15050A   25261.24019167  .00000029  00000+0  13887-3 0  9992
2 40920  82.4876 248.9432 0008446 216.7214 143.3288 12.42915014453076
COSMOS 2508             
1 40921U 15050B   25261.27281992  .00000043  00000+0  23636-3 0  9992
2 40921  82.4831 247.5306 0012496 256.7527 103.2159 12.42901593453062
COSMOS 2509             
1 40922U 15050C   25261.29363697  .00000040  00000+0  21579-3 0  9999
2 40922  82.4836 247.6051 0013001 277.5649  82.3954 12.42922556453102
LQSAT                   
1 40958U 15057A   25261.32354167  .00000745  00000+0  11422-3 0  9999
2 40958  97.6596 263.4761 0018781  76.3992 283.9309 14.76218798535190
LINGQIAO VIDEO A        
1 40959U 15057B   25261.31853878  .00000789  00000+0  11911-3 0  9993
2 40959  97.6557 264.8231 0018537  74.8582 285.4678 14.76789459535274
LINGQIAO VIDEO B        
1 40960U 15057C   25261.31103619  .00000794  00000+0  11950-3 0  9995
2 40960  97.6545 266.0327 0018689  74.9385 285.3893 14.76862776535310
JILIN-1                 
1 40961U 15057D   25261.31320522  .00000770  00000+0  11422-3 0  9998
2 40961  97.6505 269.3656 0018677  70.2790 290.0434 14.77574187535450
FOX-1A (AO-85)          
1 40967U 15058D   25260.78485052  .00005349  00000+0  48228-3 0  9996
2 40967  64.7764  44.2492 0146557 161.7090 198.9373 14.88701697 72986
SINOD-D 1               
1 40968U 15058E   25260.73813393  .00007207  00000+0  59462-3 0  9992
2 40968  64.7772  30.3153 0135561 160.4841 200.1536 14.92779640 75943
ELEKTRO-L 2             
1 41105U 15074A   25261.29969442 -.00000134  00000+0  00000+0 0  9996
2 41105   6.0052  73.8612 0002589 173.0432 203.9603  1.00271058 35787
DAMPE                   
1 41173U 15078A   25261.28699293  .00001524  00000+0  55523-4 0  9996
2 41173  97.4538 260.6692 0011238 328.2644  31.7918 15.29738737542966
ORBCOMM FM114           
1 41179U 15081A   25261.18207228  .00000584  00000+0  16139-3 0  9992
2 41179  47.0023 207.5806 0001761  29.8397 330.2589 14.58339554518046
ORBCOMM FM110           
1 41182U 15081D   25260.28359154  .00000614  00000+0  16777-3 0  9994
2 41182  47.0012 211.3613 0003124 273.0061  87.0467 14.58348906517786
ORBCOMM FM112           
1 41184U 15081F   25261.00726068  .00000648  00000+0  17502-3 0  9993
2 41184  46.9983 116.8140 0001175  40.5821 319.5152 14.58390210519211
ORBCOMM FM113           
1 41185U 15081G   25260.98420584  .00000644  00000+0  17400-3 0  9997
2 41185  46.9998 117.2625 0000897  61.0027 299.0948 14.58384547519195
ORBCOMM FM108           
1 41187U 15081J   25260.32574844  .00000627  00000+0  17076-3 0  9996
2 41187  47.0062  31.7969 0001911   1.8556 358.2336 14.58303805520244
ORBCOMM FM117           
1 41188U 15081K   25260.42902239  .00000602  00000+0  16541-3 0  9990
2 41188  47.0025  30.0409 0002338  18.8672 341.2300 14.58299979520302
ORBCOMM FM116           
1 41189U 15081L   25261.03005000  .00000666  00000+0  17888-3 0  9994
2 41189  47.0015 117.0115 0002005 237.3481 122.7211 14.58383971519205
CHUBUSAT-2              
1 41338U 16012B   25260.52443520  .00005481  00000+0  26683-3 0  9994
2 41338  30.9994 305.7378 0010157 178.6306 181.4363 15.16751799526924
CHUBUSAT-3              
1 41339U 16012C   25261.20952107  .00004512  00000+0  22939-3 0  9991
2 41339  31.0061 305.2118 0010288 181.5752 178.4856 15.15112392526867
